start=new Date('2023-06-11T00:00:00.000Z').valueOf();
sats=[{"CLASSIFICATION_TYPE":"U","EPOCH":"2023-06-10T22:00:00.999936","TLE_LINE2":"2 56417  42.9960 244.6626 0001351 274.1995 267.7600 15.66700023  1304","INCLINATION":"42.9960","OBJECT_ID":"2023-061AV","RCS_SIZE":"LARGE","MEAN_MOTION":"15.66700023","PERIAPSIS":"367.444","OBJECT_NAME":"STARLINK-6261","MEAN_MOTION_DDOT":"0.0000000000000","BSTAR":"-0.00996410000000","RA_OF_ASC_NODE":"244.6626","TLE_LINE1":"1 56417U 23061AV  23161.91667824 -.00975242  00000-0 -99641-2 0  9993","MEAN_MOTION_DOT":"-0.00975242","COUNTRY_CODE":"US","APOAPSIS":"369.267","ELEMENT_SET_NO":"999","SEMIMAJOR_AXIS":"6746.491","MEAN_ANOMALY":"267.7600","ARG_OF_PERICENTER":"274.1995","EPHEMERIS_TYPE":"0","SITE":"AFETR","FILE":"3929969","OBJECT_TYPE":"PAYLOAD","MEAN_ELEMENT_THEORY":"SGP4","LAUNCH_DATE":"2023-05-04","ECCENTRICITY":"0.00013510","PERIOD":"91.913","REF_FRAME":"TEME","NORAD_CAT_ID":"56417","DECAY_DATE":null,"GP_ID":"233658091","CENTER_NAME":"EARTH","REV_AT_EPOCH":"130","TIME_SYSTEM":"UTC"},{"NORAD_CAT_ID":"56418","REF_FRAME":"TEME","TIME_SYSTEM":"UTC","REV_AT_EPOCH":"589","CENTER_NAME":"EARTH","GP_ID":"233657648","DECAY_DATE":null,"EPHEMERIS_TYPE":"0","ARG_OF_PERICENTER":"269.9447","MEAN_ANOMALY":"90.1235","PERIOD":"91.641","ECCENTRICITY":"0.00016200","MEAN_ELEMENT_THEORY":"SGP4","LAUNCH_DATE":"2023-05-04","OBJECT_TYPE":"PAYLOAD","FILE":"3929969","SITE":"AFETR","TLE_LINE1":"1 56418U 23061AW  23161.68975169  .00000057  00000-0  38815-5 0  9992","RA_OF_ASC_NODE":"245.9721","SEMIMAJOR_AXIS":"6733.166","ELEMENT_SET_NO":"999","APOAPSIS":"356.122","MEAN_MOTION_DOT":"0.00000057","COUNTRY_CODE":"US","OBJECT_ID":"2023-061AW","INCLINATION":"42.9964","TLE_LINE2":"2 56418  42.9964 245.9721 0001620 269.9447  90.1235 15.71352942  5891","EPOCH":"2023-06-10T16:33:14.546016","CLASSIFICATION_TYPE":"U","BSTAR":"0.00000388150000","MEAN_MOTION_DDOT":"0.0000000000000","OBJECT_NAME":"STARLINK-5356","MEAN_MOTION":"15.71352942","PERIAPSIS":"353.941","RCS_SIZE":"LARGE"},{"SITE":"AFETR","FILE":"3929969","OBJECT_TYPE":"PAYLOAD","LAUNCH_DATE":"2023-05-04","MEAN_ELEMENT_THEORY":"SGP4","ECCENTRICITY":"0.00013450","PERIOD":"91.912","MEAN_ANOMALY":"280.5122","ARG_OF_PERICENTER":"262.7412","EPHEMERIS_TYPE":"0","DECAY_DATE":null,"GP_ID":"233658033","CENTER_NAME":"EARTH","REV_AT_EPOCH":"130","TIME_SYSTEM":"UTC","REF_FRAME":"TEME","NORAD_CAT_ID":"56419","RCS_SIZE":"LARGE","MEAN_MOTION":"15.66712442","PERIAPSIS":"367.413","OBJECT_NAME":"STARLINK-5350","MEAN_MOTION_DDOT":"0.0000000000000","BSTAR":"-0.00996210000000","CLASSIFICATION_TYPE":"U","EPOCH":"2023-06-10T22:00:00.999936","INCLINATION":"42.9960","TLE_LINE2":"2 56419  42.9960 244.6590 0001345 262.7412 280.5122 15.66712442  1306","OBJECT_ID":"2023-061AX","COUNTRY_CODE":"US","MEAN_MOTION_DOT":"-0.00975512","APOAPSIS":"369.228","ELEMENT_SET_NO":"999","SEMIMAJOR_AXIS":"6746.455","RA_OF_ASC_NODE":"244.6590","TLE_LINE1":"1 56419U 23061AX  23161.91667824 -.00975512  00000-0 -99621-2 0  9993"},{"MEAN_MOTION_DDOT":"0.0000000000000","BSTAR":"0.00004996300000","RCS_SIZE":"LARGE","MEAN_MOTION":"15.71358974","PERIAPSIS":"353.962","OBJECT_NAME":"STARLINK-6272","OBJECT_ID":"2023-061AY","CLASSIFICATION_TYPE":"U","EPOCH":"2023-06-10T16:33:05.505120","TLE_LINE2":"2 56420  42.9964 245.9737 0001563 277.4330  82.6360 15.71358974  5898","INCLINATION":"42.9964","ELEMENT_SET_NO":"999","SEMIMAJOR_AXIS":"6733.149","COUNTRY_CODE":"US","MEAN_MOTION_DOT":"0.00006106","APOAPSIS":"356.067","RA_OF_ASC_NODE":"245.9737","TLE_LINE1":"1 56420U 23061AY  23161.68964705  .00006106  00000-0  49963-4 0  9995","ECCENTRICITY":"0.00015630","PERIOD":"91.640","SITE":"AFETR","FILE":"3929969","OBJECT_TYPE":"PAYLOAD","LAUNCH_DATE":"2023-05-04","MEAN_ELEMENT_THEORY":"SGP4","EPHEMERIS_TYPE":"0","MEAN_ANOMALY":"82.6360","ARG_OF_PERICENTER":"277.4330","REV_AT_EPOCH":"589","TIME_SYSTEM":"UTC","DECAY_DATE":null,"CENTER_NAME":"EARTH","GP_ID":"233657969","REF_FRAME":"TEME","NORAD_CAT_ID":"56420"},{"CLASSIFICATION_TYPE":"U","EPOCH":"2023-06-10T16:33:23.854752","INCLINATION":"42.9968","TLE_LINE2":"2 56421  42.9968 245.9752 0001393 263.5736  96.4973 15.71354750  5898","OBJECT_ID":"2023-061AZ","RCS_SIZE":"LARGE","PERIAPSIS":"354.088","MEAN_MOTION":"15.71354750","OBJECT_NAME":"STARLINK-6270","MEAN_MOTION_DDOT":"0.0000000000000","BSTAR":"0.00001646600000","RA_OF_ASC_NODE":"245.9752","TLE_LINE1":"1 56421U 23061AZ  23161.68985943  .00001708  00000-0  16466-4 0  9998","MEAN_MOTION_DOT":"0.00001708","COUNTRY_CODE":"US","APOAPSIS":"355.964","ELEMENT_SET_NO":"999","SEMIMAJOR_AXIS":"6733.161","MEAN_ANOMALY":"96.4973","ARG_OF_PERICENTER":"263.5736","EPHEMERIS_TYPE":"0","SITE":"AFETR","FILE":"3929969","OBJECT_TYPE":"PAYLOAD","LAUNCH_DATE":"2023-05-04","MEAN_ELEMENT_THEORY":"SGP4","ECCENTRICITY":"0.00013930","PERIOD":"91.641","REF_FRAME":"TEME","NORAD_CAT_ID":"56421","DECAY_DATE":null,"GP_ID":"233657836","CENTER_NAME":"EARTH","REV_AT_EPOCH":"589","TIME_SYSTEM":"UTC"},{"DECAY_DATE":null,"CENTER_NAME":"EARTH","GP_ID":"233657905","TIME_SYSTEM":"UTC","REV_AT_EPOCH":"589","NORAD_CAT_ID":"56422","REF_FRAME":"TEME","FILE":"3929969","SITE":"AFETR","MEAN_ELEMENT_THEORY":"SGP4","LAUNCH_DATE":"2023-05-04","OBJECT_TYPE":"PAYLOAD","PERIOD":"91.641","ECCENTRICITY":"0.00018090","MEAN_ANOMALY":"104.5686","ARG_OF_PERICENTER":"255.4981","EPHEMERIS_TYPE":"0","MEAN_MOTION_DOT":"-0.00002171","COUNTRY_CODE":"US","APOAPSIS":"356.262","ELEMENT_SET_NO":"999","SEMIMAJOR_AXIS":"6733.179","TLE_LINE1":"1 56422U 23061BA  23161.68943887 -.00002171  00000-0 -13115-4 0  9995","RA_OF_ASC_NODE":"245.9718","RCS_SIZE":"LARGE","OBJECT_NAME":"STARLINK-6236","PERIAPSIS":"353.826","MEAN_MOTION":"15.71348475","MEAN_MOTION_DDOT":"0.0000000000000","BSTAR":"-0.00001311500000","CLASSIFICATION_TYPE":"U","INCLINATION":"42.9964","TLE_LINE2":"2 56422  42.9964 245.9718 0001809 255.4981 104.5686 15.71348475  5890","EPOCH":"2023-06-10T16:32:47.518368","OBJECT_ID":"2023-061BA"},{"COUNTRY_CODE":"US","MEAN_MOTION_DOT":"-0.00005489","APOAPSIS":"356.249","ELEMENT_SET_NO":"999","SEMIMAJOR_AXIS":"6733.200","RA_OF_ASC_NODE":"245.9717","TLE_LINE1":"1 56423U 23061BB  23161.68953713 -.00005489  00000-0 -38460-4 0  9990","RCS_SIZE":"LARGE","MEAN_MOTION":"15.71341010","PERIAPSIS":"353.882","OBJECT_NAME":"STARLINK-6239","MEAN_MOTION_DDOT":"0.0000000000000","BSTAR":"-0.00003846000000","CLASSIFICATION_TYPE":"U","EPOCH":"2023-06-10T16:32:56.008032","INCLINATION":"42.9963","TLE_LINE2":"2 56423  42.9963 245.9717 0001758 265.5984  94.4683 15.71341010  5899","OBJECT_ID":"2023-061BB","DECAY_DATE":null,"CENTER_NAME":"EARTH","GP_ID":"233657777","REV_AT_EPOCH":"589","TIME_SYSTEM":"UTC","REF_FRAME":"TEME","NORAD_CAT_ID":"56423","SITE":"AFETR","FILE":"3929969","OBJECT_TYPE":"PAYLOAD","MEAN_ELEMENT_THEORY":"SGP4","LAUNCH_DATE":"2023-05-04","ECCENTRICITY":"0.00017580","PERIOD":"91.641","MEAN_ANOMALY":"94.4683","ARG_OF_PERICENTER":"265.5984","EPHEMERIS_TYPE":"0"},{"OBJECT_ID":"2023-061BC","TLE_LINE2":"2 56424  42.9967 246.7355 0001555 260.6864  99.3827 15.71362158  5877","INCLINATION":"42.9967","EPOCH":"2023-06-10T13:29:25.535904","CLASSIFICATION_TYPE":"U","BSTAR":"0.00002694500000","MEAN_MOTION_DDOT":"0.0000000000000","OBJECT_NAME":"STARLINK-6242","MEAN_MOTION":"15.71362158","PERIAPSIS":"353.958","RCS_SIZE":"LARGE","TLE_LINE1":"1 56424U 23061BC  23161.56210111  .00003084  00000-0  26945-4 0  9998","RA_OF_ASC_NODE":"246.7355","SEMIMAJOR_AXIS":"6733.140","ELEMENT_SET_NO":"999","APOAPSIS":"356.052","COUNTRY_CODE":"US","MEAN_MOTION_DOT":"0.00003084","EPHEMERIS_TYPE":"0","ARG_OF_PERICENTER":"260.6864","MEAN_ANOMALY":"99.3827","PERIOD":"91.640","ECCENTRICITY":"0.00015550","LAUNCH_DATE":"2023-05-04","MEAN_ELEMENT_THEORY":"SGP4","OBJECT_TYPE":"PAYLOAD","FILE":"3929969","SITE":"AFETR","NORAD_CAT_ID":"56424","REF_FRAME":"TEME","TIME_SYSTEM":"UTC","REV_AT_EPOCH":"587","CENTER_NAME":"EARTH","GP_ID":"233657713","DECAY_DATE":null},{"BSTAR":"-0.00000959250000","MEAN_MOTION_DDOT":"0.0000000000000","MEAN_MOTION":"15.71349514","PERIAPSIS":"353.911","OBJECT_NAME":"STARLINK-6224","RCS_SIZE":"LARGE","OBJECT_ID":"2023-061BD","EPOCH":"2023-06-10T16:32:38.368608","INCLINATION":"42.9970","TLE_LINE2":"2 56425  42.9970 245.9703 0001679 256.2904 103.7777 15.71349514  5890","CLASSIFICATION_TYPE":"U","SEMIMAJOR_AXIS":"6733.176","ELEMENT_SET_NO":"999","APOAPSIS":"356.172","COUNTRY_CODE":"US","MEAN_MOTION_DOT":"-0.00001709","RA_OF_ASC_NODE":"245.9703","TLE_LINE1":"1 56425U 23061BD  23161.68933297 -.00001709  00000-0 -95925-5 0  9998","ECCENTRICITY":"0.00016790","PERIOD":"91.641","OBJECT_TYPE":"PAYLOAD","LAUNCH_DATE":"2023-05-04","MEAN_ELEMENT_THEORY":"SGP4","SITE":"AFETR","FILE":"3929969","EPHEMERIS_TYPE":"0","ARG_OF_PERICENTER":"256.2904","MEAN_ANOMALY":"103.7777","REV_AT_EPOCH":"589","TIME_SYSTEM":"UTC","GP_ID":"233658092","CENTER_NAME":"EARTH","DECAY_DATE":null,"REF_FRAME":"TEME","NORAD_CAT_ID":"56425"},{"PERIOD":"91.641","ECCENTRICITY":"0.00014630","LAUNCH_DATE":"2023-05-04","MEAN_ELEMENT_THEORY":"SGP4","OBJECT_TYPE":"PAYLOAD","FILE":"3929969","SITE":"AFETR","EPHEMERIS_TYPE":"0","ARG_OF_PERICENTER":"254.9268","MEAN_ANOMALY":"105.1438","TIME_SYSTEM":"UTC","REV_AT_EPOCH":"589","CENTER_NAME":"EARTH","GP_ID":"233657649","DECAY_DATE":null,"NORAD_CAT_ID":"56426","REF_FRAME":"TEME","BSTAR":"0.00001334700000","MEAN_MOTION_DDOT":"0.0000000000000","OBJECT_NAME":"STARLINK-5352","MEAN_MOTION":"15.71356984","PERIAPSIS":"354.035","RCS_SIZE":"LARGE","OBJECT_ID":"2023-061BE","TLE_LINE2":"2 56426  42.9966 245.9674 0001463 254.9268 105.1438 15.71356984  5891","INCLINATION":"42.9966","EPOCH":"2023-06-10T16:32:10.951296","CLASSIFICATION_TYPE":"U","SEMIMAJOR_AXIS":"6733.155","ELEMENT_SET_NO":"999","APOAPSIS":"356.005","MEAN_MOTION_DOT":"0.00001299","COUNTRY_CODE":"US","TLE_LINE1":"1 56426U 23061BE  23161.68901564  .00001299  00000-0  13347-4 0  9990","RA_OF_ASC_NODE":"245.9674"}];
